{
    "links": {
        "self": "http://www.neowsapp.com/rest/v1/neo/3323932?api_key=iIulBulltgU6a56xZRHN4H3l9WmuAYTsLGpBGhQ2"
    },
    "id": "3323932",
    "neo_reference_id": "3323932",
    "name": "(2006 DU)",
    "designation": "2006 DU",
    "nasa_jpl_url": "http://ssd.jpl.nasa.gov/sbdb.cgi?sstr=3323932",
    "absolute_magnitude_h": 24.7,
    "estimated_diameter": {
        "kilometers": {
            "estimated_diameter_min": 0.0305179233,
            "estimated_diameter_max": 0.0682401509
        },
        "meters": {
            "estimated_diameter_min": 30.5179232594,
            "estimated_diameter_max": 68.2401509401
        },
        "miles": {
            "estimated_diameter_min": 0.0189629525,
            "estimated_diameter_max": 0.0424024508
        },
        "feet": {
            "estimated_diameter_min": 100.1244233463,
            "estimated_diameter_max": 223.8850168104
        }
    },
    "is_potentially_hazardous_asteroid": false,
    "close_approach_data": [
        {
            "close_approach_date": "2006-02-25",
            "close_approach_date_full": "2006-Feb-25 02:38",
            "epoch_date_close_approach": 1140835080000,
            "relative_velocity": {
                "kilometers_per_second": "7.5699238855",
                "kilometers_per_hour": "27251.7259877559",
                "miles_per_hour": "16933.1627394475"
            },
            "miss_distance": {
                "astronomical": "0.0367191049",
                "lunar": "14.2837318061",
                "kilometers": "5493099.881346563",
                "miles": "3413253.9915780494"
            },
            "orbiting_body": "Earth"
        },
        {
            "close_approach_date": "2138-05-20",
            "close_approach_date_full": "2138-May-20 18:58",
            "epoch_date_close_approach": 5313668280000,
            "relative_velocity": {
                "kilometers_per_second": "21.5211193255",
                "kilometers_per_hour": "77476.0295718439",
                "miles_per_hour": "48140.5918192382"
            },
            "miss_distance": {
                "astronomical": "0.4910653754",
                "lunar": "191.0244310306",
                "kilometers": "73462334.190590398",
                "miles": "45647377.7689995724"
            },
            "orbiting_body": "Earth"
        }
    ],
    "orbital_data": {
        "orbit_id": "7",
        "orbit_determination_date": "2017-04-06 09:09:07",
        "first_observation_date": "2006-02-20",
        "last_observation_date": "2006-02-26",
        "data_arc_in_days": 6,
        "observations_used": 48,
        "orbit_uncertainty": "8",
        "minimum_orbit_intersection": ".0246654",
        "jupiter_tisserand_invariant": "3.683",
        "epoch_osculation": "2453788.5",
        "eccentricity": ".495049419692621",
        "semi_major_axis": "1.993812813159818",
        "inclination": "4.150558964271391",
        "ascending_node_longitude": "151.8150788544639",
        "orbital_period": "1028.312229580154",
        "perihelion_distance": "1.006776937029338",
        "perihelion_argument": "21.56876669289428",
        "aphelion_distance": "2.980848689290298",
        "perihelion_time": "2453805.102109288066",
        "mean_anomaly": "354.1877970797411",
        "mean_motion": ".3500882218885827",
        "equinox": "J2000",
        "orbit_class": {
            "orbit_class_type": "APO",
            "orbit_class_description": "Near-Earth asteroid orbits which cross the Earth’s orbit similar to that of 1862 Apollo",
            "orbit_class_range": "a (semi-major axis) > 1.0 AU; q (perihelion) < 1.017 AU"
        }
    },
    "is_sentry_object": false
}